ONEWEB-0415             
1 51624U 22012C   25363.19061924  .00000565  00000+0  15810-2 0  9998
2 51624  87.8794  70.1578 0001437 105.4760 254.6526 13.10371919187022
ONEWEB-0416             
1 51625U 22012D   25363.20222334 -.00000016  00000+0 -83105-4 0  9992
2 51625  87.8792  70.1764 0001474 118.8321 241.2955 13.10369888187064
ONEWEB-0422             
1 51626U 22012E   25363.51007455 -.00000041  00000+0 -13887-3 0  9999
2 51626  87.9102  39.5809 0001965  76.1867 283.9483 13.17649694191467
ONEWEB-0423             
1 51627U 22012F   25363.12364557  .00000064  00000+0  13196-3 0  9992
2 51627  87.9102  39.6680 0001896  94.3746 265.7602 13.17649218191303
ONEWEB-0425             
1 51628U 22012G   25363.21220429 -.00003526  00000+0 -10144-1 0  9998
2 51628  87.8799  70.1472 0002047 112.4858 247.6486 13.10345705187063
ONEWEB-0428             
1 51629U 22012H   25363.11591749  .00000445  00000+0  12371-2 0  9994
2 51629  87.8794  70.1836 0001781 102.3883 257.7444 13.10370956187010
ONEWEB-0431             
1 51630U 22012J   25363.16223722  .00000036  00000+0  67799-4 0  9996
2 51630  87.8805  70.1551 0001096  92.8965 267.2287 13.10376953187072
ONEWEB-0434             
1 51631U 22012K   25363.13927397 -.00000525  00000+0 -15399-2 0  9995
2 51631  87.8789  70.1944 0002370 111.6062 248.5318 13.10371515187058
